NORAD_CAT_ID,OBJECT_NAME,OBJECT_TYPE,EPOCH,MEAN_MOTION,ECCENTRICITY,INCLINATION,RA_OF_ASC_NODE,ARG_OF_PERICENTER,MEAN_ANOMALY,BSTAR,MEAN_MOTION_DOT,MEAN_MOTION_DDOT,TLE_LINE0,TLE_LINE1,TLE_LINE2,SEMIMAJOR_AXIS,PERIOD,APOGEE,PERIGEE,DECAYED
52579.0,STARLINK-3893,PAYLOAD,2024-01-09 11:28:57,15.08843962,0.0001556,53.2179,81.5191,104.8377,255.2788,5.9646e-06,-1.93e-06,0.0,0 STARLINK-3893,1 52579U 22051AV  24009.47844741 -.00000193  00000-0  59646-5 0  9991,2 52579  53.2179  81.5191 0001556 104.8377 255.2788 15.08843962 92081,6917.868,95.437,540.81,538.657,0.0
52579.0,STARLINK-3893,PAYLOAD,2024-01-10 04:58:13,15.08832853,0.0001503,53.2172,78.2489,91.6006,268.5158,3.6286e-06,-2.3e-06,0.0,0 STARLINK-3893,1 52579U 22051AV  24010.20709543 -.00000230  00000-0  36286-5 0  9991,2 52579  53.2172  78.2489 0001503  91.6006 268.5158 15.08832853 92266,6917.902,95.438,540.807,538.727,0.0
52579.0,STARLINK-3893,PAYLOAD,2024-01-10 11:19:45,15.08836874,0.0001437,53.2174,77.061,77.2731,282.8422,5.0047e-05,5.09e-06,0.0,0 STARLINK-3893,1 52579U 22051AV  24010.47205247  .00000509  00000-0  50047-4 0  9990,2 52579  53.2174  77.0610 0001437  77.2731 282.8422 15.08836874 92239,6917.89,95.438,540.749,538.761,0.0
52579.0,STARLINK-3893,PAYLOAD,2024-01-11 04:48:59,15.08847568,0.0001744,53.2179,73.7907,101.1911,258.9278,-8.7269e-05,-1.677e-05,0.0,0 STARLINK-3893,1 52579U 22051AV  24011.20069231 -.00001677  00000-0 -87269-4 0  9998,2 52579  53.2179  73.7907 0001744 101.1911 258.9278 15.08847568 92419,6917.857,95.437,540.929,538.516,0.0
52579.0,STARLINK-3893,PAYLOAD,2024-01-11 11:10:31,15.08844089,0.0001667,53.2181,72.5992,106.368,253.7495,0.00010028,1.308e-05,0.0,0 STARLINK-3893,1 52579U 22051AV  24011.46564770  .00001308  00000-0  10028-3 0  9991,2 52579  53.2181  72.5992 0001667 106.3680 253.7495 15.08844089 92382,6917.868,95.437,540.886,538.58,0.0
52579.0,STARLINK-3893,PAYLOAD,2024-01-12 11:01:19,15.08834663,0.0001234,53.2185,68.1356,66.7567,293.3555,9.9992e-05,1.304e-05,0.0,0 STARLINK-3893,1 52579U 22051AV  24012.45925844  .00001304  00000-0  99992-4 0  9998,2 52579  53.2185  68.1356 0001234  66.7567 293.3555 15.08834663 92603,6917.897,95.438,540.615,538.908,0.0
52579.0,STARLINK-3893,PAYLOAD,2024-01-12 12:36:42,15.0884112,0.000165,53.2182,67.8374,100.1599,259.9579,8.3096e-05,1.035e-05,0.0,0 STARLINK-3893,1 52579U 22051AV  24012.52549412  .00001035  00000-0  83096-4 0  9998,2 52579  53.2182  67.8374 0001650 100.1599 259.9579 15.08841120 92549,6917.877,95.437,540.883,538.601,0.0
52579.0,STARLINK-3893,PAYLOAD,2024-01-13 10:52:06,15.08843534,0.0001628,53.218,63.6774,89.5059,270.612,3.6269e-05,2.89e-06,0.0,0 STARLINK-3893,1 52579U 22051AV  24013.45285587  .00000289  00000-0  36269-4 0  9991,2 52579  53.2180  63.6774 0001628  89.5059 270.6120 15.08843534 92689,6917.87,95.437,540.861,538.608,0.0
52579.0,STARLINK-3893,PAYLOAD,2024-01-14 10:42:53,15.08844939,0.0001657,53.2183,59.2147,81.3192,278.7988,7.7262e-05,9.42e-06,0.0,0 STARLINK-3893,1 52579U 22051AV  24014.44645646  .00000942  00000-0  77262-4 0  9991,2 52579  53.2183  59.2147 0001657  81.3192 278.7988 15.08844939 92903,6917.865,95.437,540.877,538.584,0.0
52579.0,STARLINK-3893,PAYLOAD,2024-01-15 12:09:03,15.0885394,0.0001671,53.2185,54.456,97.7197,262.3985,0.00014127,1.962e-05,0.0,0 STARLINK-3893,1 52579U 22051AV  24015.50628883  .00001962  00000-0  14127-3 0  9996,2 52579  53.2185  54.4560 0001671  97.7197 262.3985 15.08853940 93069,6917.838,95.437,540.859,538.547,0.0
52579.0,STARLINK-3893,PAYLOAD,2024-01-16 02:27:33,15.08834161,0.0001495,53.2182,51.7849,67.3161,292.7989,-2.8181e-05,-7.36e-06,0.0,0 STARLINK-3893,1 52579U 22051AV  24016.10246648 -.00000736  00000-0 -28181-4 0  9994,2 52579  53.2182  51.7849 0001495  67.3161 292.7989 15.08834161 93159,6917.898,95.438,540.797,538.729,0.0
52579.0,STARLINK-3893,PAYLOAD,2024-01-16 08:49:05,15.08837841,0.0001752,53.2184,50.5955,72.3982,287.7201,8.8017e-06,-1.48e-06,0.0,0 STARLINK-3893,1 52579U 22051AV  24016.36742422 -.00000148  00000-0  88017-5 0  9994,2 52579  53.2184  50.5955 0001752  72.3982 287.7201 15.08837841 93125,6917.887,95.438,540.964,538.54,0.0
52579.0,STARLINK-3893,PAYLOAD,2024-01-17 08:39:53,15.08827449,0.0001405,53.2176,46.1328,82.4452,277.6699,-7.2345e-05,-1.439e-05,0.0,0 STARLINK-3893,1 52579U 22051AV  24017.36103553 -.00001439  00000-0 -72345-4 0  9992,2 52579  53.2176  46.1328 0001405  82.4452 277.6699 15.08827449 93346,6917.919,95.438,540.756,538.812,0.0
52579.0,STARLINK-3893,PAYLOAD,2024-01-18 02:09:07,15.08837454,0.0001902,53.2195,42.8585,128.3213,231.7951,8.234e-05,1.022e-05,0.0,0 STARLINK-3893,1 52579U 22051AV  24018.08966649  .00001022  00000-0  82340-4 0  9997,2 52579  53.2195  42.8585 0001902 128.3213 231.7951 15.08837454 93453,6917.888,95.438,541.069,538.437,0.0
52579.0,STARLINK-3893,PAYLOAD,2024-01-18 11:41:25,15.08851727,0.0001569,53.218,41.0725,106.552,253.5644,0.00018839,2.712e-05,0.0,0 STARLINK-3893,1 52579U 22051AV  24018.48709550  .00002712  00000-0  18839-3 0  9995,2 52579  53.2180  41.0725 0001569 106.5520 253.5644 15.08851727 93519,6917.845,95.437,540.795,538.624,0.0
52579.0,STARLINK-3893,PAYLOAD,2024-01-18 22:49:07,15.08833421,0.0001418,53.2177,38.9852,113.3749,246.7392,0.00021878,3.195e-05,0.0,0 STARLINK-3893,1 52579U 22051AV  24018.95078608  .00003195  00000-0  21878-3 0  9993,2 52579  53.2177  38.9852 0001418 113.3749 246.7392 15.08833421 93585,6917.9,95.438,540.746,538.785,0.0
52579.0,STARLINK-3893,PAYLOAD,2024-01-19 09:56:49,15.08843104,0.0001289,53.217,36.9077,94.9622,265.1517,0.00026478,3.929e-05,0.0,0 STARLINK-3893,1 52579U 22051AV  24019.41446244  .00003929  00000-0  26478-3 0  9996,2 52579  53.2170  36.9077 0001289  94.9622 265.1517 15.08843104 93588,6917.871,95.437,540.628,538.844,0.0
52579.0,STARLINK-3893,PAYLOAD,2024-01-19 22:39:55,15.08845001,0.000147,53.2167,34.5346,98.4086,261.7072,-1.4711e-06,-3.11e-06,0.0,0 STARLINK-3893,1 52579U 22051AV  24019.94438863 -.00000311  00000-0 -14711-5 0  9995,2 52579  53.2167  34.5346 0001470  98.4086 261.7072 15.08845001 93735,6917.865,95.437,540.747,538.713,0.0
52579.0,STARLINK-3893,PAYLOAD,2024-01-20 08:12:13,15.08845207,0.0001374,53.2171,32.7495,86.3064,273.8085,6.2741e-06,-1.88e-06,0.0,0 STARLINK-3893,1 52579U 22051AV  24020.34182775 -.00000188  00000-0  62741-5 0  9996,2 52579  53.2171  32.7495 0001374  86.3064 273.8085 15.08845207 93725,6917.864,95.437,540.68,538.779,0.0
52579.0,STARLINK-3893,PAYLOAD,2024-01-21 00:06:05,15.08838635,0.0001664,53.2162,29.7736,113.1201,246.9966,5.9142e-05,6.53e-06,0.0,0 STARLINK-3893,1 52579U 22051AV  24021.00422894  .00000653  00000-0  59142-4 0  9995,2 52579  53.2162  29.7736 0001664 113.1201 246.9966 15.08838635 93897,6917.885,95.438,540.901,538.598,0.0
52579.0,STARLINK-3893,PAYLOAD,2024-01-21 06:27:37,15.0884305,0.0001483,53.2164,28.585,95.3112,264.8049,6.4195e-05,7.34e-06,0.0,0 STARLINK-3893,1 52579U 22051AV  24021.26918733  .00000734  00000-0  64195-4 0  9999,2 52579  53.2164  28.5850 0001483  95.3112 264.8049 15.08843050 93869,6917.871,95.437,540.762,538.71,0.0
52579.0,STARLINK-3893,PAYLOAD,2024-01-21 08:03:00,15.08844738,0.0001526,53.2164,28.2876,97.9677,262.1488,7.4174e-05,8.93e-06,0.0,0 STARLINK-3893,1 52579U 22051AV  24021.33542594  .00000893  00000-0  74174-4 0  9999,2 52579  53.2164  28.2876 0001526  97.9677 262.1488 15.08844738 93879,6917.866,95.437,540.787,538.675,0.0
52579.0,STARLINK-3893,PAYLOAD,2024-01-22 04:43:01,15.08843392,0.000151,53.2177,24.4228,75.9425,284.1735,0.00013349,1.837e-05,0.0,0 STARLINK-3893,1 52579U 22051AV  24022.19654622  .00001837  00000-0  13349-3 0  9995,2 52579  53.2177  24.4228 0001510  75.9425 284.1735 15.08843392 94079,6917.87,95.437,540.78,538.69,0.0
52579.0,STARLINK-3893,PAYLOAD,2024-01-23 02:58:25,15.08840652,0.0001455,53.2199,20.2604,90.6346,269.4813,5.1981e-05,5.39e-06,0.0,0 STARLINK-3893,1 52579U 22051AV  24023.12390932  .00000539  00000-0  51981-4 0  9993,2 52579  53.2199  20.2604 0001455  90.6346 269.4813 15.08840652 94214,6917.878,95.438,540.75,538.737,0.0
52579.0,STARLINK-3893,PAYLOAD,2024-01-23 06:09:11,15.08844537,0.0001518,53.2182,19.6648,83.0706,277.0459,9.1661e-05,1.171e-05,0.0,0 STARLINK-3893,1 52579U 22051AV  24023.25638670  .00001171  00000-0  91661-4 0  9993,2 52579  53.2182  19.6648 0001518  83.0706 277.0459 15.08844537 94163,6917.867,95.437,540.782,538.681,0.0
52579.0,STARLINK-3893,PAYLOAD,2024-01-24 05:59:59,15.08836129,0.0001531,53.2173,15.1997,100.3892,259.7273,0.00018828,2.709e-05,0.0,0 STARLINK-3893,1 52579U 22051AV  24024.24998923  .00002709  00000-0  18828-3 0  9994,2 52579  53.2173  15.1997 0001531 100.3892 259.7273 15.08836129 94388,6917.892,95.438,540.816,538.698,0.0
52579.0,STARLINK-3893,PAYLOAD,2024-01-25 02:40:00,15.08812928,0.0001638,53.2183,11.3323,107.9466,252.1705,0.00038369,5.819e-05,0.0,0 STARLINK-3893,1 52579U 22051AV  24025.11111739  .00005819  00000-0  38369-3 0  9990,2 52579  53.2183  11.3323 0001638 107.9466 252.1705 15.08812928 94511,6917.963,95.439,540.961,538.695,0.0
52579.0,STARLINK-3893,PAYLOAD,2024-01-25 05:50:46,15.08824037,0.0001559,53.2182,10.7388,101.8814,258.2353,0.00029276,4.372e-05,0.0,0 STARLINK-3893,1 52579U 22051AV  24025.24359534  .00004372  00000-0  29276-3 0  9991,2 52579  53.2182  10.7388 0001559 101.8814 258.2353 15.08824037 94538,6917.929,95.439,540.873,538.716,0.0
52579.0,STARLINK-3893,PAYLOAD,2024-01-26 04:06:10,15.08838948,0.0001498,53.2184,6.5753,102.3061,257.8099,-4.2729e-06,-3.56e-06,0.0,0 STARLINK-3893,1 52579U 22051AV  24026.17095401 -.00000356  00000-0 -42729-5 0  9994,2 52579  53.2184   6.5753 0001498 102.3061 257.8099 15.08838948 94674,6917.884,95.438,540.785,538.712,0.0
52579.0,STARLINK-3893,PAYLOAD,2024-01-27 08:43:07,15.08831387,0.0001531,53.2193,1.2274,103.1576,256.9587,0.000255,3.772e-05,0.0,0 STARLINK-3893,1 52579U 22051AV  24027.36327693  .00003772  00000-0  25500-3 0  9996,2 52579  53.2193   1.2274 0001531 103.1576 256.9587 15.08831387 94854,6917.907,95.438,540.831,538.713,0.0
